satname,norad_id,inclination_deg,eccentricity,mean_motion_rev_per_day,perigee_km,apogee_km,l1,l2
STARLINK-1422,45696,53.1574,0.0002524,15.34702089,460.079113829197,463.53191681092994,1 45696U 20035AR  26155.75448244  .00044278  00000+0  13013-2 0  9991,2 45696  53.1574   4.2410 0002524 139.9050 220.2139 15.34702089332318
STARLINK-1351,45697,53.0438,0.000358,15.66132575,367.56762624392104,372.399280488532,1 45697U 20035AS  26155.72557463  .00050005  00000+0  47997-3 0  9997,2 45697  53.0438 317.7074 0003580 140.0395 220.0884 15.66132575332950
STARLINK-1400,45700,53.0433,0.0001826,15.6488239,372.34416227901784,374.80988824104315,1 45700U 20035AV  26155.86495062  .00049083  00000+0  49542-3 0  9995,2 45700  53.0433 319.5594 0001826  63.1867 296.9334 15.64882390332932
STARLINK-1403,45701,53.155,0.0007935,15.33706324,459.3359251655447,470.19561185917337,1 45701U 20035AW  26155.89559777  .00023120  00000+0  70807-3 0  9995,2 45701  53.1550 351.1409 0007935 170.9986 189.1160 15.33706324332508
STARLINK-1407,45703,53.0278,0.0005858,15.733103,345.502705020107,353.384738593777,1 45703U 20035AY  26154.53620664  .00073650  00000+0  52160-3 0  9996,2 45703  53.0278 252.9213 0005858  18.2004 341.9222 15.73310300333758
STARLINK-1411,45706,53.0291,0.0009352,15.90834961,293.69980238287644,306.1904872265186,1 45706U 20035BB  26156.00002315  .00364788  60944-4  11458-2 0  9997,2 45706  53.0291 267.3273 0009352 332.9366 258.7764 15.90834961  5869
STARLINK-1423,45710,53.0434,0.0005542,15.68799485,358.5979871528216,366.0691247170198,1 45710U 20035BF  26155.74040293  .00060477  00000+0  51912-3 0  9999,2 45710  53.0434 316.7089 0005542  87.6360 272.5290 15.68799485332959
STARLINK-1433,45711,53.044,0.0005413,15.68387576,359.86442494845505,367.1629359751232,1 45711U 20035BG  26155.91616395  .00061076  00000+0  53311-3 0  9992,2 45711  53.0440 314.4297 0005413  93.9228 266.2407 15.68387576333004
STARLINK-1434,45712,53.0494,0.0001299,15.34143202,462.57788013780737,464.3553287542418,1 45712U 20035BH  26155.74159211  .00042495  00000+0  12719-2 0  9993,2 45712  53.0494 334.4361 0001299 105.0376 255.0769 15.34143202332729
STARLINK-1465,45731,53.0434,0.0001752,15.67538927,364.76513642376085,367.12826335220143,1 45731U 20038B   26156.00002315  .00555498  00000+0  46876-2 0  9992,2 45731  53.0434 159.5936 0001752  72.4942 331.8132 15.67538927  5911
STARLINK-1471,45735,53.0453,0.0003044,15.53323502,404.9649798520795,409.0957897559492,1 45735U 20038F   26155.04670069  .00029129  00000+0  45933-3 0  9997,2 45735  53.0453  86.8573 0003044 105.7760 254.3585 15.53323502330939
STARLINK-1480,45741,53.0466,0.0006769,15.64965332,368.7683921914895,377.9085396772707,1 45741U 20038M   26155.26924964  .00048294  00000+0  48555-3 0  9991,2 45741  53.0466 156.8184 0006769  20.9223 339.2068 15.64965332329971
STARLINK-1500,45744,53.0345,0.0002096,15.39023662,447.5641922355444,450.42612603665475,1 45744U 20038Q   26155.22480771  .00024366  00000+0  62925-3 0  9994,2 45744  53.0345 145.4474 0002096 110.6781 249.4447 15.39023662330126
STARLINK-1504,45746,53.0201,0.0003549,15.58792106,388.7493776312522,393.5542188202335,1 45746U 20038S   26155.07394007  .00039399  00000+0  50499-3 0  9990,2 45746  53.0201  83.6168 0003549  92.4500 267.6917 15.58792106330965
STARLINK-1506,45747,53.0738,0.0002988,15.28253137,478.98470121121863,483.08374193323016,1 45747U 20038T   26155.23311625  .00008460  00000+0  31552-3 0  9998,2 45747  53.0738 161.3586 0002988 156.9540 203.1593 15.28253137329916
STARLINK-1464,45751,53.0454,0.0004407,15.53941531,402.24178410895274,408.22064485319515,1 45751U 20038X   26155.26829512  .00028838  00000+0  44470-3 0  9999,2 45751  53.0454 149.6177 0004407  30.7579 329.3688 15.53941531330075
STARLINK-1477,45754,53.0489,0.0001316,15.18749766,508.71159151473876,510.5244486360225,1 45754U 20038AA  26155.22631758  .00023898  00000+0  11476-2 0  9991,2 45754  53.0489 178.2839 0001316 347.1817  12.9144 15.18749766329667
STARLINK-1478,45755,53.0444,0.0004943,15.68000945,361.2889075783205,367.9547989806724,1 45755U 20038AB  26155.19094744  .00060420  00000+0  53593-3 0  9995,2 45755  53.0444 135.1193 0004943  62.0545 298.0971 15.68000945330250
STARLINK-1493,45759,53.0453,0.0007046,15.64732588,369.2503806432869,378.7655032955108,1 45759U 20038AF  26155.90868242  .00056510  00000+0  57185-3 0  9996,2 45759  53.0453 141.1962 0007046  20.8448 339.2852 15.64732588330231
STARLINK-1494,45760,53.0368,0.0002284,16.07822401,251.30924813358342,254.33827100855524,1 45760U 20038AG  26155.94815789  .00581869  18045-3  69507-3 0  9993,2 45760  53.0368  69.6313 0002284 198.4138 161.6812 16.07822401331246
STARLINK-1502,45764,53.0443,0.0006796,15.61046796,380.03612503465683,389.228080799342,1 45764U 20038AL  26155.24997965  .00094172  00000+0  10913-2 0  9997,2 45764  53.0443 148.1393 0006796 354.0591   6.0340 15.61046796330094
STARLINK-1470,45772,53.0434,0.0004695,15.34953074,457.8488784018655,464.27088427344097,1 45772U 20038AU  26155.19944075  .00041255  00000+0  12037-2 0  9997,2 45772  53.0434 130.5284 0004695  25.4810 334.6422 15.34953074330330
STARLINK-1482,45773,53.1566,0.0005688,15.37484874,449.6638153219201,457.4355420876145,1 45773U 20038AV  26155.21549572  .00053385  00000+0  14308-2 0  9994,2 45773  53.1566 146.8911 0005688  18.9091 341.2123 15.37484874330125
STARLINK-1496,45780,53.0456,6.6e-05,15.68371222,363.1155935035449,364.0054975795556,1 45780U 20038BC  26156.00002315 -.00081329  00000+0 -71131-3 0  9998,2 45780  53.0456 115.1572 0000660 106.4920 227.9757 15.68371222  5961
STARLINK-1513,45786,53.1578,0.0001227,15.3170127,469.89585268155224,471.57656616714485,1 45786U 20038BJ  26155.24851150  .00000360  00000+0  23353-4 0  9996,2 45786  53.1578 148.5560 0001227  80.9700 279.1441 15.31701270330108
STARLINK-1522,46027,53.0636,0.0003209,15.12947671,525.0003696795739,529.4322254259423,1 46027U 20055A   26155.06282700  .00029022  00000+0  16375-2 0  9993,2 46027  53.0636  96.0146 0003209  40.8058 319.3174 15.12947671321949
STARLINK-1523,46028,53.1627,0.0001228,15.3038214,473.82976129123745,475.51281100631604,1 46028U 20055B   26155.12927532  .00014734  00000+0  50577-3 0  9997,2 46028  53.1627  85.1949 0001228  95.7181 264.3960 15.30382140322134
STARLINK-1526,46029,53.1584,0.0001231,15.30185345,474.4151739306726,476.1024799832694,1 46029U 20055C   26155.12333426 -.00000339  00000+0  69553-6 0  9995,2 46029  53.1584  85.2497 0001231 100.3124 259.8016 15.30185345322128
STARLINK-1555,46032,53.1583,0.0001193,15.30198293,474.40256070844316,476.0377717283027,1 46032U 20055F   26155.10753433  .00003851  00000+0  14209-3 0  9997,2 46032  53.1583  85.2979 0001193 127.2640 232.8470 15.30198293322125
STARLINK-1556,46033,53.1588,9.87e-05,15.30200505,474.5371358803377,475.8899872811926,1 46033U 20055G   26155.09067672  .00004177  00000+0  15307-3 0  9991,2 46033  53.1588  85.3914 0000987  73.8418 286.2691 15.30200505322094
STARLINK-1557,46034,53.1591,0.0001297,15.30199979,474.3262523500025,476.10401189307504,1 46034U 20055H   26155.09383860  .00003695  00000+0  13681-3 0  9999,2 46034  53.1591  85.3717 0001297  70.5365 289.5775 15.30199979322091
STARLINK-1558,46035,53.1575,0.0001034,15.30187091,474.54497304798315,475.9622542268826,1 46035U 20055J   26155.10118870 -.00009786  00000+0 -31883-3 0  9992,2 46035  53.1575  85.3346 0001034 100.4283 259.6834 15.30187091322123
STARLINK-1560,46036,53.1595,0.0001131,15.30198677,474.44390509587356,475.9941342275215,1 46036U 20055K   26155.08751642  .00002244  00000+0  87864-4 0  9991,2 46036  53.1595  85.4082 0001131  69.6114 290.5008 15.30198677322120
STARLINK-1569,46039,53.1586,0.0001445,15.30224908,474.1504010022254,476.13099825741847,1 46039U 20055N   26155.95346921  .00013429  00000+0  46435-3 0  9995,2 46039  53.1586  81.3711 0001445  97.2373 262.8792 15.30224908322241
STARLINK-1582,46043,53.1604,0.0001292,15.3171446,469.81202171846326,471.5817603959131,1 46043U 20055S   26155.12527921  .00003319  00000+0  11862-3 0  9993,2 46043  53.1604  84.6622 0001292  75.5367 284.5778 15.31714460322126
STARLINK-1591,46045,53.161,0.0001191,15.30205067,474.3837078828128,476.01617274199634,1 46045U 20055U   26155.07171384  .00006667  00000+0  23699-3 0  9997,2 46045  53.1610  85.4697 0001191 109.2467 250.8663 15.30205067322092
STARLINK-1524,46047,53.1618,0.0004891,15.32298311,465.6081279393684,472.3059553308967,1 46047U 20055W   26155.94276711  .00415797  00000+0  12446-1 0  9999,2 46047  53.1618  68.1524 0004891  98.1002 262.0555 15.32298311322439
STARLINK-1527,46048,53.1594,0.0001272,15.31719293,469.81131456182084,471.5536542386535,1 46048U 20055X   26155.93820348  .00012744  00000+0  42149-3 0  9990,2 46048  53.1594  68.1577 0001272  94.4906 265.6241 15.31719293322407
STARLINK-1540,46051,53.1599,0.0001192,15.31695925,469.9357550297327,471.5685302013335,1 46051U 20055AA  26155.07599377  .00002593  00000+0  95298-4 0  9999,2 46051  53.1599  72.3846 0001192 104.6480 255.4653 15.31695925322313
STARLINK-1541,46052,53.1582,0.0002835,15.83079931,319.8372334935675,323.63606185179924,1 46052U 20055AB  26156.00002315  .00195578  00000+0  87725-3 0  9996,2 46052  53.1582  52.9832 0002835 216.0880 268.6862 15.83079931  6005
STARLINK-1543,46053,53.1594,0.0001111,15.31715047,469.9342360179289,471.45604651971917,1 46053U 20055AC  26155.04800522  .00007835  00000+0  26384-3 0  9998,2 46053  53.1594  72.3173 0001111  89.3738 270.7391 15.31715047322305
STARLINK-1548,46054,53.1588,0.0001798,15.31706932,469.48790700391055,471.9507557406714,1 46054U 20055AD  26155.06199398  .00002933  00000+0  10623-3 0  9996,2 46054  53.1588  72.3281 0001798 165.5367 194.5686 15.31706932322308
STARLINK-1554,46055,53.1608,0.0001179,15.31703215,469.92293002689075,471.53789296252216,1 46055U 20055AE  26155.04335410  .00003784  00000+0  13363-3 0  9991,2 46055  53.1608  72.3575 0001179  86.6859 273.4277 15.31703215322304
